1 43013U 17073A   26171.38467992  .00000046  00000+0  42637-4 0  9999
2 43013  98.7771 110.8189 0000383 117.6624 242.4591 14.19512290444925
